start=new Date('2022-12-10T00:00:00.000Z').valueOf();
sats=[{"MEAN_ANOMALY":"5.9233","LAUNCH_DATE":"2022-07-11","BSTAR":"-0.00020390000000","TLE_LINE2":"2 53078  97.6593 162.5858 0002720 354.1960   5.9233 15.01234821 23574","FILE":"3686017","RCS_SIZE":"LARGE","APOAPSIS":"564.977","TLE_LINE1":"1 53078U 22077AM  22343.78234092 -.00002676  00000-0 -20390-3 0  9990","EPOCH":"2022-12-09T18:46:34.255488","SEMIMAJOR_AXIS":"6941.224","GP_ID":"219862570","SITE":"AFWTR","PERIOD":"95.921","TIME_SYSTEM":"UTC","ECCENTRICITY":"0.00027200","CLASSIFICATION_TYPE":"U","EPHEMERIS_TYPE":"0","INCLINATION":"97.6593","REF_FRAME":"TEME","OBJECT_ID":"2022-077AM","REV_AT_EPOCH":"2357","PERIAPSIS":"561.201","ELEMENT_SET_NO":"999","MEAN_MOTION":"15.01234821","COUNTRY_CODE":"US","CENTER_NAME":"EARTH","MEAN_ELEMENT_THEORY":"SGP4","ARG_OF_PERICENTER":"354.1960","DECAY_DATE":null,"MEAN_MOTION_DOT":"-0.00002676","OBJECT_NAME":"STARLINK-4322","MEAN_MOTION_DDOT":"0.0000000000000","RA_OF_ASC_NODE":"162.5858","OBJECT_TYPE":"PAYLOAD","NORAD_CAT_ID":"53078"},{"APOAPSIS":"564.997","TLE_LINE1":"1 53079U 22077AN  22343.24357753 -.00002142  00000-0 -16231-3 0  9999","EPOCH":"2022-12-09T05:50:45.098592","FILE":"3685263","RCS_SIZE":"LARGE","TLE_LINE2":"2 53079  97.6583 162.0636 0002742 351.5683   8.5494 15.01233432 22912","BSTAR":"-0.00016231000000","LAUNCH_DATE":"2022-07-11","MEAN_ANOMALY":"8.5494","CLASSIFICATION_TYPE":"U","ECCENTRICITY":"0.00027420","EPHEMERIS_TYPE":"0","TIME_SYSTEM":"UTC","PERIOD":"95.921","SITE":"AFWTR","GP_ID":"219844090","SEMIMAJOR_AXIS":"6941.229","PERIAPSIS":"561.190","REV_AT_EPOCH":"2291","OBJECT_ID":"2022-077AN","INCLINATION":"97.6583","REF_FRAME":"TEME","RA_OF_ASC_NODE":"162.0636","MEAN_MOTION_DDOT":"0.0000000000000","NORAD_CAT_ID":"53079","OBJECT_TYPE":"PAYLOAD","OBJECT_NAME":"STARLINK-4327","MEAN_MOTION_DOT":"-0.00002142","ARG_OF_PERICENTER":"351.5683","DECAY_DATE":null,"CENTER_NAME":"EARTH","COUNTRY_CODE":"US","MEAN_ELEMENT_THEORY":"SGP4","ELEMENT_SET_NO":"999","MEAN_MOTION":"15.01233432"},{"ECCENTRICITY":"0.00026640","CLASSIFICATION_TYPE":"U","EPHEMERIS_TYPE":"0","TIME_SYSTEM":"UTC","PERIOD":"95.918","SITE":"AFWTR","SEMIMAJOR_AXIS":"6941.077","GP_ID":"219845322","TLE_LINE1":"1 53080U 22077AP  22343.24722647  .00004816  00000-0  37907-3 0  9990","EPOCH":"2022-12-09T05:56:00.367008","APOAPSIS":"564.791","FILE":"3685263","RCS_SIZE":"LARGE","TLE_LINE2":"2 53080  97.6564 162.0597 0002664 355.4698   4.6501 15.01282736 22918","BSTAR":"0.00037907000000","LAUNCH_DATE":"2022-07-11","MEAN_ANOMALY":"4.6501","MEAN_MOTION_DDOT":"0.0000000000000","RA_OF_ASC_NODE":"162.0597","OBJECT_TYPE":"PAYLOAD","NORAD_CAT_ID":"53080","OBJECT_NAME":"STARLINK-4330","MEAN_MOTION_DOT":"0.00004816","DECAY_DATE":null,"ARG_OF_PERICENTER":"355.4698","CENTER_NAME":"EARTH","COUNTRY_CODE":"US","MEAN_ELEMENT_THEORY":"SGP4","MEAN_MOTION":"15.01282736","ELEMENT_SET_NO":"999","PERIAPSIS":"561.093","REV_AT_EPOCH":"2291","OBJECT_ID":"2022-077AP","INCLINATION":"97.6564","REF_FRAME":"TEME"},{"MEAN_ANOMALY":"354.6131","LAUNCH_DATE":"2022-07-11","TLE_LINE2":"2 53081  97.6542 162.3872 0002790   5.5123 354.6131 15.01255348 23546","BSTAR":"-0.00007234500000","RCS_SIZE":"LARGE","FILE":"3685359","TLE_LINE1":"1 53081U 22077AQ  22343.57335777 -.00000988  00000-0 -72345-4 0  9995","EPOCH":"2022-12-09T13:45:38.111328","APOAPSIS":"564.963","SEMIMAJOR_AXIS":"6941.161","GP_ID":"219847205","SITE":"AFWTR","PERIOD":"95.920","TIME_SYSTEM":"UTC","EPHEMERIS_TYPE":"0","ECCENTRICITY":"0.00027900","CLASSIFICATION_TYPE":"U","REF_FRAME":"TEME","INCLINATION":"97.6542","OBJECT_ID":"2022-077AQ","REV_AT_EPOCH":"2354","PERIAPSIS":"561.090","ELEMENT_SET_NO":"999","MEAN_MOTION":"15.01255348","MEAN_ELEMENT_THEORY":"SGP4","CENTER_NAME":"EARTH","COUNTRY_CODE":"US","DECAY_DATE":null,"ARG_OF_PERICENTER":"5.5123","MEAN_MOTION_DOT":"-0.00000988","OBJECT_NAME":"STARLINK-4326","OBJECT_TYPE":"PAYLOAD","NORAD_CAT_ID":"53081","RA_OF_ASC_NODE":"162.3872","MEAN_MOTION_DDOT":"0.0000000000000"},{"MEAN_ANOMALY":"18.4642","BSTAR":"0.00038197000000","TLE_LINE2":"2 53082  97.6547 162.0600 0003072 341.6471  18.4642 15.01284838 22910","LAUNCH_DATE":"2022-07-11","APOAPSIS":"565.068","TLE_LINE1":"1 53082U 22077AR  22343.24166476  .00004854  00000-0  38197-3 0  9998","EPOCH":"2022-12-09T05:47:59.835264","FILE":"3685263","RCS_SIZE":"LARGE","SEMIMAJOR_AXIS":"6941.070","GP_ID":"219843885","SITE":"AFWTR","PERIOD":"95.918","CLASSIFICATION_TYPE":"U","ECCENTRICITY":"0.00030720","EPHEMERIS_TYPE":"0","TIME_SYSTEM":"UTC","INCLINATION":"97.6547","REF_FRAME":"TEME","OBJECT_ID":"2022-077AR","PERIAPSIS":"560.803","REV_AT_EPOCH":"2291","CENTER_NAME":"EARTH","COUNTRY_CODE":"US","MEAN_ELEMENT_THEORY":"SGP4","MEAN_MOTION":"15.01284838","ELEMENT_SET_NO":"999","MEAN_MOTION_DOT":"0.00004854","DECAY_DATE":null,"ARG_OF_PERICENTER":"341.6471","OBJECT_NAME":"STARLINK-4321","RA_OF_ASC_NODE":"162.0600","MEAN_MOTION_DDOT":"0.0000000000000","NORAD_CAT_ID":"53082","OBJECT_TYPE":"PAYLOAD"},{"OBJECT_NAME":"STARLINK-4251","RA_OF_ASC_NODE":"162.3625","MEAN_MOTION_DDOT":"0.0000000000000","OBJECT_TYPE":"PAYLOAD","NORAD_CAT_ID":"53083","CENTER_NAME":"EARTH","COUNTRY_CODE":"US","MEAN_ELEMENT_THEORY":"SGP4","MEAN_MOTION":"15.01259864","ELEMENT_SET_NO":"999","MEAN_MOTION_DOT":"-0.00001439","ARG_OF_PERICENTER":"3.9261","DECAY_DATE":null,"OBJECT_ID":"2022-077AS","PERIAPSIS":"561.296","REV_AT_EPOCH":"2354","INCLINATION":"97.6490","REF_FRAME":"TEME","PERIOD":"95.919","CLASSIFICATION_TYPE":"U","ECCENTRICITY":"0.00024720","EPHEMERIS_TYPE":"0","TIME_SYSTEM":"UTC","SEMIMAJOR_AXIS":"6941.147","GP_ID":"219859127","SITE":"AFWTR","TLE_LINE2":"2 53083  97.6490 162.3625 0002472   3.9261 356.1982 15.01259864 23546","BSTAR":"-0.00010747000000","LAUNCH_DATE":"2022-07-11","TLE_LINE1":"1 53083U 22077AS  22343.56199581 -.00001439  00000-0 -10747-3 0  9996","APOAPSIS":"564.728","EPOCH":"2022-12-09T13:29:16.437984","FILE":"3685886","RCS_SIZE":"LARGE","MEAN_ANOMALY":"356.1982"},{"MEAN_ANOMALY":"354.5174","EPOCH":"2022-12-09T13:45:16.678944","TLE_LINE1":"1 53084U 22077AT  22343.57310971  .00000086  00000-0  11269-4 0  9992","APOAPSIS":"565.006","RCS_SIZE":"LARGE","FILE":"3685423","TLE_LINE2":"2 53084  97.6568 162.3853 0002843   5.6081 354.5174 15.01253178 23544","BSTAR":"0.00001126900000","LAUNCH_DATE":"2022-07-11","SITE":"AFWTR","GP_ID":"219848592","SEMIMAJOR_AXIS":"6941.168","EPHEMERIS_TYPE":"0","ECCENTRICITY":"0.00028430","CLASSIFICATION_TYPE":"U","TIME_SYSTEM":"UTC","PERIOD":"95.920","REF_FRAME":"TEME","INCLINATION":"97.6568","PERIAPSIS":"561.060","REV_AT_EPOCH":"2354","OBJECT_ID":"2022-077AT","MEAN_MOTION_DOT":"0.00000086","DECAY_DATE":null,"ARG_OF_PERICENTER":"5.6081","MEAN_ELEMENT_THEORY":"SGP4","CENTER_NAME":"EARTH","COUNTRY_CODE":"US","MEAN_MOTION":"15.01253178","ELEMENT_SET_NO":"999","OBJECT_TYPE":"PAYLOAD","NORAD_CAT_ID":"53084","RA_OF_ASC_NODE":"162.3853","MEAN_MOTION_DDOT":"0.0000000000000","OBJECT_NAME":"STARLINK-4319"},{"PERIAPSIS":"560.743","REV_AT_EPOCH":"2354","OBJECT_ID":"2022-077AU","INCLINATION":"97.6534","REF_FRAME":"TEME","MEAN_MOTION_DDOT":"0.0000000000000","RA_OF_ASC_NODE":"162.3805","OBJECT_TYPE":"PAYLOAD","NORAD_CAT_ID":"53085","OBJECT_NAME":"STARLINK-4324","MEAN_MOTION_DOT":"-0.00004239","DECAY_DATE":null,"ARG_OF_PERICENTER":"13.4942","CENTER_NAME":"EARTH","COUNTRY_CODE":"US","MEAN_ELEMENT_THEORY":"SGP4","MEAN_MOTION":"15.01247281","ELEMENT_SET_NO":"999","TLE_LINE1":"1 53085U 22077AU  22343.56940562 -.00004239  00000-0 -32567-3 0  9996","APOAPSIS":"565.359","EPOCH":"2022-12-09T13:39:56.645568","FILE":"3685359","RCS_SIZE":"LARGE","TLE_LINE2":"2 53085  97.6534 162.3805 0003325  13.4942 346.6370 15.01247281 23542","BSTAR":"-0.00032567000000","LAUNCH_DATE":"2022-07-11","MEAN_ANOMALY":"346.6370","ECCENTRICITY":"0.00033250","CLASSIFICATION_TYPE":"U","EPHEMERIS_TYPE":"0","TIME_SYSTEM":"UTC","PERIOD":"95.920","SITE":"AFWTR","SEMIMAJOR_AXIS":"6941.186","GP_ID":"219847200"},{"NORAD_CAT_ID":"53086","OBJECT_TYPE":"PAYLOAD","RA_OF_ASC_NODE":"162.3787","MEAN_MOTION_DDOT":"0.0000000000000","OBJECT_NAME":"STARLINK-4318","DECAY_DATE":null,"ARG_OF_PERICENTER":"358.7030","MEAN_MOTION_DOT":"-0.00000653","ELEMENT_SET_NO":"999","MEAN_MOTION":"15.01253874","MEAN_ELEMENT_THEORY":"SGP4","COUNTRY_CODE":"US","CENTER_NAME":"EARTH","REV_AT_EPOCH":"2354","PERIAPSIS":"560.570","OBJECT_ID":"2022-077AV","REF_FRAME":"TEME","INCLINATION":"97.6525","TIME_SYSTEM":"UTC","EPHEMERIS_TYPE":"0","CLASSIFICATION_TYPE":"U","ECCENTRICITY":"0.00035450","PERIOD":"95.920","SITE":"AFWTR","SEMIMAJOR_AXIS":"6941.166","GP_ID":"219847196","RCS_SIZE":"LARGE","FILE":"3685359","TLE_LINE1":"1 53086U 22077AV  22343.57125266 -.00000653  00000-0 -46203-4 0  9993","EPOCH":"2022-12-09T13:42:36.229824","APOAPSIS":"565.491","LAUNCH_DATE":"2022-07-11","TLE_LINE2":"2 53086  97.6525 162.3787 0003545 358.7030   1.4184 15.01253874 23543","BSTAR":"-0.00004620300000","MEAN_ANOMALY":"1.4184"},{"REF_FRAME":"TEME","INCLINATION":"97.6488","OBJECT_ID":"2022-077AW","REV_AT_EPOCH":"2354","PERIAPSIS":"561.149","ELEMENT_SET_NO":"999","MEAN_MOTION":"15.01261141","MEAN_ELEMENT_THEORY":"SGP4","CENTER_NAME":"EARTH","COUNTRY_CODE":"US","DECAY_DATE":null,"ARG_OF_PERICENTER":"3.4164","MEAN_MOTION_DOT":"-0.00000069","OBJECT_NAME":"STARLINK-4329","OBJECT_TYPE":"PAYLOAD","NORAD_CAT_ID":"53087","MEAN_MOTION_DDOT":"0.0000000000000","RA_OF_ASC_NODE":"162.3674","MEAN_ANOMALY":"356.7078","LAUNCH_DATE":"2022-07-11","BSTAR":"-0.00000075777000","TLE_LINE2":"2 53087  97.6488 162.3674 0002679   3.4164 356.7078 15.01261141 23540","RCS_SIZE":"LARGE","FILE":"3685359","TLE_LINE1":"1 53087U 22077AW  22343.56594118 -.00000069  00000-0 -75777-6 0  9990","APOAPSIS":"564.868","EPOCH":"2022-12-09T13:34:57.317952","GP_ID":"219847203","SEMIMAJOR_AXIS":"6941.143","SITE":"AFWTR","PERIOD":"95.919","TIME_SYSTEM":"UTC","EPHEMERIS_TYPE":"0","CLASSIFICATION_TYPE":"U","ECCENTRICITY":"0.00026790"}];
